OBJECT_NAME,OBJECT_ID,EPOCH,MEAN_MOTION,ECCENTRICITY,INCLINATION,RA_OF_ASC_NODE,ARG_OF_PERICENTER,MEAN_ANOMALY,EPHEMERIS_TYPE,CLASSIFICATION_TYPE,NORAD_CAT_ID,ELEMENT_SET_NO,REV_AT_EPOCH,BSTAR,MEAN_MOTION_DOT,MEAN_MOTION_DDOT
OPS 6582 (TRANSIT 5B-5),1964-083D,2026-06-05T08:37:30.800928,13.57011691,.0039975,90.0769,202.9450,314.5172,56.6752,0,U,965,999,4201,.54859E-4,.48E-6,0
LES-1,1965-008C,2026-06-05T02:34:12.586368,9.88354999,.00155986,32.1445,73.3186,227.2820,132.6364,0,U,1002,999,21499,-.62467751E-3,.4E-7,0
SOLRAD 7B,1965-016D,2026-06-05T13:36:26.580384,13.94974300,.0019392,70.0798,260.9673,141.9578,218.2901,0,U,1291,999,11508,.60677E-4,.3E-6,0
SECOR 4 (EGRS 4),1965-027B,2026-06-05T08:37:35.983200,12.92667515,.0029749,90.2502,15.3110,229.2883,303.9006,0,U,1315,999,88539,-.21453E-3,-.51E-6,0
TIROS 10,1965-051A,2026-06-05T19:11:05.326944,14.41626669,.0056416,98.5027,276.1809,112.8313,247.8848,0,U,1430,999,19427,.78261E-4,.215E-5,0
ALOUETTE 2,1965-098A,2026-06-05T14:20:56.819040,12.28333594,.1329737,79.8015,286.5174,256.0500,88.9539,0,U,1804,999,67785,.14648E-3,.439E-5,0
OV3-3,1966-070A,2026-06-05T18:10:36.420672,13.45010910,.1013092,81.3258,341.0954,187.3106,171.2260,0,U,2389,999,59743,.68854E-3,.15327E-3,0
SECOR 7 (EGRS 7),1966-077B,2026-05-31T19:23:56.009760,8.59615314,.0011654,90.3353,277.2466,75.1080,285.1061,0,U,2411,999,87597,-.94660848E-2,-.17E-6,0
ERS 15,1966-077C,2026-05-30T06:48:48.924576,8.59079282,.00073123,90.3351,277.0217,86.0359,274.1328,0,U,2412,999,38892,0,.2E-7,0
ISIS 1,1969-009A,2026-06-05T05:50:04.982208,11.30432109,.170595,88.4418,145.7124,272.3696,68.3981,0,U,3669,999,35842,.51656E-4,.69E-6,0
SECOR 13 (EGRS 13),1969-037B,2026-06-05T10:07:27.808032,13.42976591,.00387,99.6502,28.4186,280.5853,255.4300,0,U,3891,999,80017,.20227E-4,-.31E-6,0
ATS 5,1969-069A,2026-06-05T19:35:13.574112,0.99497176,.0005326,0.2441,158.1264,121.7365,81.4644,0,U,4068,999,4621,0,-.133E-5,0
OPS 7613 (P/L 4),1969-082E,2026-06-05T15:41:50.929152,13.95994566,.0019118,70.0131,128.5278,152.0034,21.0378,0,U,4237,999,88469,.70504E-4,.44E-6,0
OPS 7613 (P/L 1),1969-082B,2026-06-05T07:09:00.452160,13.99194580,.0017105,70.0103,350.5565,79.6606,280.6429,0,U,4256,999,88880,.10277E-3,.96E-6,0
SHINSEI (MS-F2),1971-080A,2026-06-05T15:33:18.628992,12.74251729,.0639824,32.0538,153.0603,322.7676,33.0151,0,U,5485,999,54778,.36205E-4,.41E-6,0
PROSPERO (BLACK ARROW),1971-093A,2026-06-05T19:19:19.375968,14.01585128,.0500143,82.0382,300.8217,259.7528,94.6905,0,U,5580,999,74693,.23341E-3,.1092E-4,0
OPS 7898 (P/L 2),1971-110C,2026-06-05T19:40:46.545024,13.74757838,.0008492,69.9907,26.3798,201.0531,159.0215,0,U,5680,999,34665,.40835E-4,-.11E-6,0
NOAA 2 (ITOS-D),1972-082A,2026-06-05T01:41:12.539328,12.53214649,.0004109,102.0075,174.5089,187.4816,240.5505,0,U,6235,999,45343,.39977E-4,-.4E-6,0
OSCAR 7 (AO-7),1974-089B,2026-06-05T06:04:51.479904,12.53697882,.0012431,101.9901,169.3754,152.3188,270.3033,0,U,7530,999,35902,-.14506E-4,-.49E-6,0
TIROS N,1978-096A,2026-06-05T12:09:36.492768,14.19371837,.0009117,98.4533,178.0884,277.0846,82.9294,0,U,11060,999,67709,.80072E-4,.127E-5,0
PHASE 3B (AO-10),1983-058B,2026-06-05T17:10:32.210112,2.05872928,.6014762,25.9038,221.4654,112.5116,319.5552,0,U,14129,999,29525,0,-.155E-5,0
HILAT,1983-063A,2026-06-05T11:53:20.685984,14.38703913,.0038462,82.0233,171.8963,327.9890,143.8315,0,U,14154,999,24590,.11899E-3,.383E-5,0
UOSAT 2 (UO-11),1984-021B,2026-06-05T19:27:35.673984,14.90755044,.0006616,97.8051,122.5133,212.1931,147.8884,0,U,14781,999,25543,.13903E-3,.131E-4,0
NOAA 9,1984-123A,2026-06-05T01:23:07.947168,14.17064957,.00150596,99.0992,182.4141,28.2936,27.0359,0,U,15427,999,14170,.83177886E-4,.121E-5,0
GEOSAT,1985-021A,2026-06-05T11:28:43.029120,14.39960754,.0001275,108.0437,57.0821,279.6739,80.4259,0,U,15595,999,16108,.86609E-4,.137E-5,0
EUTELSAT 1-F4 (ECS 4),1987-078B,2026-06-05T17:01:03.241056,0.98690212,.0011221,13.8367,342.2085,42.6002,141.2246,0,U,18351,999,12664,0,-.126E-5,0
PACSAT (AO-16),1990-005D,2026-06-05T08:55:23.976192,14.33932864,.0009441,98.8527,191.7737,265.9282,107.0632,0,U,20439,999,90024,.62917E-4,.129E-5,0
LUSAT (LO-19),1990-005G,2026-06-05T07:42:37.598400,14.34119464,.0010571,98.8853,177.7996,238.2188,121.7967,0,U,20442,999,90069,.61458E-4,.125E-5,0
IRS-1B,1991-061A,2026-06-05T12:48:24.765408,13.97870651,.0024991,99.4106,164.1894,37.1849,73.7651,0,U,21688,999,66686,.19587E-3,.231E-5,0
COSMOS 2197,1992-042A,2026-06-05T12:07:44.648832,12.64251919,.0011467,82.5948,236.3968,303.1681,67.9889,0,U,22034,999,56381,.92195E-4,.27E-6,0
PEGASUS R/B,1993-009C,2026-06-05T08:23:11.791392,14.57954373,.0043845,24.9760,164.5121,339.7445,20.1329,0,U,22491,999,76790,.16787E-3,.999E-5,0
EYESAT A (AO-27),1993-061C,2026-06-05T11:05:53.323008,14.30939099,.0009296,98.6882,223.8798,130.1900,230.0097,0,U,22825,999,70532,.61062E-4,.116E-5,0
ITAMSAT (IO-26),1993-061D,2026-06-05T02:17:58.436736,14.31365384,.0009997,98.6830,223.4296,116.5147,243.7062,0,U,22826,999,70558,.58344E-4,.11E-5,0
RADIO ROSTO (RS15),1994-085A,2026-06-05T16:12:07.724160,11.27583592,.0155597,64.8186,321.8348,6.0031,354.2712,0,U,23439,999,29460,-.17083E-6,-.42E-6,0
JAS-2 (FO-29),1996-046B,2026-06-05T11:33:20.564064,13.53273625,.0350683,98.5250,6.9568,126.7306,236.6586,0,U,24278,999,47158,.47757E-5,-.28E-6,0
FORTE,1997-047A,2026-06-05T19:36:18.546048,14.27940689,.0024452,69.9542,39.7041,291.1299,68.7209,0,U,24920,999,49706,.99698E-4,.19E-5,0
NOAA 15,1998-030A,2026-06-05T18:11:18.040416,14.27142950,.0010756,98.5068,177.6991,27.4924,332.6824,0,U,25338,999,45966,.65135E-4,.116E-5,0
TECHSAT 1B (GO-32),1998-043D,2026-06-05T11:22:58.376928,14.24426083,.0000406,99.0065,148.9377,200.1436,159.9726,0,U,25397,999,44966,.51302E-4,.72E-6,0
ISS (ZARYA),1998-067A,2026-06-05T18:33:21.960576,15.49621928,.0007059,51.6332,356.5983,137.5864,222.5671,0,U,25544,999,56998,.17151E-3,.922E-4,0
ORSTED,1999-008B,2026-06-05T07:49:45.376032,14.51797815,.0130686,96.4832,66.5351,224.1548,134.9163,0,U,25635,999,44024,.98873E-4,.411E-5,0
LANDSAT 7,1999-020A,2026-06-05T18:30:06.071040,14.63907057,.000177,97.8579,160.9299,96.1475,19.3322,0,U,25682,999,44417,.10077E-3,.482E-5,0
ORBCOMM FM36,1999-065E,2026-06-05T10:43:12.345024,14.39176233,.0005335,45.0377,215.3224,263.7985,96.2257,0,U,25984,999,38529,.30035E-3,.796E-5,0
DMSP 5D-3 F15 (USA 147),1999-067A,2026-06-05T20:21:25.998912,14.17560695,.0010639,98.9965,195.2609,40.0536,321.5735,0,U,25991,999,36904,.11055E-3,.179E-5,0
OPAL (OO-38),2000-004C,2026-06-05T13:22:36.890688,14.37960100,.0036513,100.1911,91.2353,68.3159,292.1904,0,U,26063,999,38161,.77755E-4,.178E-5,0
IMAGE,2000-017A,2026-06-01T06:23:33.544608,1.68666062,.74437368,94.2162,315.1599,289.6105,8.6041,0,U,26113,999,16123,-.18882371E-1,-.99E-6,0
CLUSTER II-FM7 (SAMBA),2000-041A,2026-06-05T23:36:57.501504,0.44829937,.90409651,149.8917,48.5803,265.6480,0.0292,0,U,26410,999,2025,0,.4453E-4,0
CLUSTER II-FM8 (TANGO),2000-045B,2026-06-03T22:20:35.712960,0.44411373,.90429738,150.1347,49.2777,266.1813,3.2525,0,U,26464,999,2025,0,.9075E-4,0
MEGSAT-1,2000-057B,2026-06-05T14:03:33.632352,15.05426641,.0041885,64.5497,106.2876,285.1171,74.5315,0,U,26546,999,39591,.26172E-3,.3662E-4,0
PHASE 3D (AO-40),2000-072B,2026-06-05T10:47:52.962720,1.25588158,.7930829,9.4445,352.7752,174.7951,207.1454,0,U,26609,999,11736,0,-.102E-5,0
ODIN,2001-007A,2026-06-05T01:51:31.380192,15.71871760,.00063013,97.3851,196.2749,158.1180,202.0353,0,U,26702,999,38749,.10497223E-2,.138173E-2,0
OMNI-M1,2001-026A,2026-06-05T06:04:02.912736,3.92401553,.001438,44.8344,248.0153,52.0994,308.0825,0,U,26857,999,20510,0,-.11E-6,0
PCSAT (NO-44),2001-043C,2026-06-05T18:35:16.941696,14.31951978,.0006115,67.0513,273.7893,264.0839,95.9566,0,U,26931,999,28881,.87929E-4,.153E-5,0
PROBA-1,2001-049B,2026-06-05T20:27:29.202048,15.07442162,.0055425,97.9595,164.9900,159.6622,200.6829,0,U,26958,999,34191,.10299E-3,.1544E-4,0
SPOT 5,2002-021A,2026-06-05T08:10:56.719200,14.54743786,.0128556,97.9852,195.7280,313.7467,45.3144,0,U,27421,999,26112,.87745E-4,.369E-5,0
FENGYUN 1D,2002-024B,2026-06-05T08:53:32.536608,14.10222930,.0014332,98.9524,206.7542,276.5650,83.3889,0,U,27431,999,23781,.43681E-4,.33E-6,0
SAUDISAT 1C (SO-50),2002-058C,2026-06-05T08:30:32.361408,14.83020070,.0075495,64.5503,165.5947,264.6340,94.6150,0,U,27607,999,26270,.13927E-3,.1035E-4,0
CORIOLIS,2003-001A,2026-06-05T11:59:57.543648,14.19941630,.0012889,98.7127,163.5632,244.6882,115.2959,0,U,27640,999,21256,.72698E-4,.111E-5,0
CUTE-1 (CO-55),2003-031E,2026-06-03T13:11:18.293856,14.24327019,.00086909,98.6736,163.2800,219.4250,140.6297,0,U,27844,999,18973,.16425086E-3,.336E-5,0
CUBESAT XI-IV (CO-57),2003-031J,2026-06-05T11:58:40.543104,14.23614506,.0008411,98.6767,164.9270,233.7946,126.2455,0,U,27848,999,18971,.13675E-3,.268E-5,0
MOZHAETS 4 (RS22),2003-042A,2026-06-05T21:07:25.762656,14.73446053,.0010309,98.3468,340.9197,310.0963,157.2672,0,U,27939,999,21388,.1278E-3,.776E-5,0
IRS-P6 (RESOURCESAT-1),2003-046A,2026-06-05T21:12:54.152640,14.36158714,.0064694,98.1906,193.9508,17.3178,106.4635,0,U,28051,999,17890,.76159E-4,.186E-5,0
SAUDISAT 2,2004-025F,2026-06-05T19:58:56.689248,14.56677195,.0024153,98.5506,156.5213,334.3740,25.6258,0,U,28371,999,16409,.84964E-4,.331E-5,0
COSMOS 2407,2004-028A,2026-06-05T01:27:20.592000,13.76333710,.00378422,82.9606,83.8148,287.1290,83.5293,0,U,28380,999,9821,.60333399E-4,.74E-6,0
COSMOS 2414,2005-002A,2026-06-05T01:33:41.761152,13.87925534,.0040326,82.9507,52.8160,6.1049,354.0597,0,U,28521,999,8213,.54261416E-4,.81E-6,0
INMARSAT 4-F1,2005-009A,2026-06-05T18:41:12.183072,1.00271479,.0002884,5.1521,42.7360,35.7763,274.1160,0,U,28628,999,7755,0,.44E-6,0
HAMSAT (VO-52),2005-017B,2026-06-05T07:47:45.744000,15.09617956,.0020934,97.9910,178.8930,78.6015,281.7563,0,U,28650,999,14497,.31477E-3,.5016E-4,0
NOAA 18,2005-018A,2026-06-05T19:09:17.135136,14.13727240,.0014315,98.8112,236.6400,179.0273,181.0930,0,U,28654,999,8470,.61988E-4,.74E-6,0
